OBJECT B                
1 51825U 22019B   25107.89876625  .00026578  00000+0  71146-3 0  9990
2 51825  97.3873 184.0851 0010192 230.6392 129.3950 15.37956258173792
